{"fetched_at":"2026-03-29T02:12:04Z","count":15717,"tles":[{"name":"ASBM-2","line1":"1 60423U 24143B   26084.40389075 -.00000020  00000+0  00000+0 0  9996","line2":"2 60423  62.7647  48.8273 5572225 269.2037  30.1463  1.50423655 10344","category":"Other"}]}