{
  "norad_id": 60423,
  "name": "ASBM-2",
  "history": [
    {
      "epoch": "2026-03-25T09:41:36.160800",
      "apogee_km": 43726.17312435999,
      "perigee_km": 7868.42132810585,
      "latitude_deg": 11.47573974419567,
      "longitude_deg": -26.92648799996823,
      "semi_major_axis_km": 32175.434226232923,
      "eccentricity": 0.5572225,
      "inclination_deg": 62.7647,
      "raan_deg": 48.8273,
      "arg_perigee_deg": 269.2037,
      "mean_anomaly_deg": 30.1463,
      "mean_motion_rev_day": 1.50423655
    }
  ]
}